<?xml version="1.0" encoding="UTF-8"?>
<ndm xmlns:xsi="http://www.w3.org/2001/XMLSchema-instance" xsi:noNamespaceSchemaLocation="https://sanaregistry.org/r/ndmxml_unqualified/ndmxml-2.0.0-master-2.0.xsd">
<omm id="CCSDS_OMM_VERS" version="2.0">
<header><CREATION_DATE/><ORIGINATOR/></header><body><segment><metadata><OBJECT_NAME>IRIDIUM 166</OBJECT_NAME><OBJECT_ID>2018-061B</OBJECT_ID><CENTER_NAME>EARTH</CENTER_NAME><REF_FRAME>TEME</REF_FRAME><TIME_SYSTEM>UTC</TIME_SYSTEM><MEAN_ELEMENT_THEORY>SGP4</MEAN_ELEMENT_THEORY></metadata><data><meanElements><EPOCH>2025-07-14T14:46:10.423488</EPOCH><MEAN_MOTION>14.34217896</MEAN_MOTION><ECCENTRICITY>.0002025</ECCENTRICITY><INCLINATION>86.3982</INCLINATION><RA_OF_ASC_NODE>197.7812</RA_OF_ASC_NODE><ARG_OF_PERICENTER>90.0513</ARG_OF_PERICENTER><MEAN_ANOMALY>270.0915</MEAN_ANOMALY></meanElements><tleParameters><EPHEMERIS_TYPE>0</EPHEMERIS_TYPE><CLASSIFICATION_TYPE>U</CLASSIFICATION_TYPE><NORAD_CAT_ID>43570</NORAD_CAT_ID><ELEMENT_SET_NO>999</ELEMENT_SET_NO><REV_AT_EPOCH>36501</REV_AT_EPOCH><BSTAR>.88285E-5</BSTAR><MEAN_MOTION_DOT>.45E-6</MEAN_MOTION_DOT><MEAN_MOTION_DDOT>0</MEAN_MOTION_DDOT></tleParameters></data></segment></body></omm>
<omm id="CCSDS_OMM_VERS" version="2.0">
<header><CREATION_DATE/><ORIGINATOR/></header><body><segment><metadata><OBJECT_NAME>IRIDIUM 158</OBJECT_NAME><OBJECT_ID>2018-061C</OBJECT_ID><CENTER_NAME>EARTH</CENTER_NAME><REF_FRAME>TEME</REF_FRAME><TIME_SYSTEM>UTC</TIME_SYSTEM><MEAN_ELEMENT_THEORY>SGP4</MEAN_ELEMENT_THEORY></metadata><data><meanElements><EPOCH>2025-07-14T12:20:02.406336</EPOCH><MEAN_MOTION>14.34217820</MEAN_MOTION><ECCENTRICITY>.0002326</ECCENTRICITY><INCLINATION>86.3982</INCLINATION><RA_OF_ASC_NODE>197.8334</RA_OF_ASC_NODE><ARG_OF_PERICENTER>84.8145</ARG_OF_PERICENTER><MEAN_ANOMALY>275.3316</MEAN_ANOMALY></meanElements><tleParameters><EPHEMERIS_TYPE>0</EPHEMERIS_TYPE><CLASSIFICATION_TYPE>U</CLASSIFICATION_TYPE><NORAD_CAT_ID>43571</NORAD_CAT_ID><ELEMENT_SET_NO>999</ELEMENT_SET_NO><REV_AT_EPOCH>36496</REV_AT_EPOCH><BSTAR>.28483E-5</BSTAR><MEAN_MOTION_DOT>.28E-6</MEAN_MOTION_DOT><MEAN_MOTION_DDOT>0</MEAN_MOTION_DDOT></tleParameters></data></segment></body></omm>
<omm id="CCSDS_OMM_VERS" version="2.0">
<header><CREATION_DATE/><ORIGINATOR/></header><body><segment><metadata><OBJECT_NAME>IRIDIUM 165</OBJECT_NAME><OBJECT_ID>2018-061D</OBJECT_ID><CENTER_NAME>EARTH</CENTER_NAME><REF_FRAME>TEME</REF_FRAME><TIME_SYSTEM>UTC</TIME_SYSTEM><MEAN_ELEMENT_THEORY>SGP4</MEAN_ELEMENT_THEORY></metadata><data><meanElements><EPOCH>2025-07-14T14:37:03.180576</EPOCH><MEAN_MOTION>14.34217851</MEAN_MOTION><ECCENTRICITY>.0002204</ECCENTRICITY><INCLINATION>86.3984</INCLINATION><RA_OF_ASC_NODE>197.8335</RA_OF_ASC_NODE><ARG_OF_PERICENTER>91.9762</ARG_OF_PERICENTER><MEAN_ANOMALY>268.1686</MEAN_ANOMALY></meanElements><tleParameters><EPHEMERIS_TYPE>0</EPHEMERIS_TYPE><CLASSIFICATION_TYPE>U</CLASSIFICATION_TYPE><NORAD_CAT_ID>43572</NORAD_CAT_ID><ELEMENT_SET_NO>999</ELEMENT_SET_NO><REV_AT_EPOCH>36500</REV_AT_EPOCH><BSTAR>.30029E-4</BSTAR><MEAN_MOTION_DOT>.104E-5</MEAN_MOTION_DOT><MEAN_MOTION_DDOT>0</MEAN_MOTION_DDOT></tleParameters></data></segment></body></omm>
<omm id="CCSDS_OMM_VERS" version="2.0">
<header><CREATION_DATE/><ORIGINATOR/></header><body><segment><metadata><OBJECT_NAME>IRIDIUM 155</OBJECT_NAME><OBJECT_ID>2018-061E</OBJECT_ID><CENTER_NAME>EARTH</CENTER_NAME><REF_FRAME>TEME</REF_FRAME><TIME_SYSTEM>UTC</TIME_SYSTEM><MEAN_ELEMENT_THEORY>SGP4</MEAN_ELEMENT_THEORY></metadata><data><meanElements><EPOCH>2025-07-14T12:01:46.458624</EPOCH><MEAN_MOTION>14.34217376</MEAN_MOTION><ECCENTRICITY>.0002065</ECCENTRICITY><INCLINATION>86.3985</INCLINATION><RA_OF_ASC_NODE>197.7648</RA_OF_ASC_NODE><ARG_OF_PERICENTER>81.8404</ARG_OF_PERICENTER><MEAN_ANOMALY>278.3026</MEAN_ANOMALY></meanElements><tleParameters><EPHEMERIS_TYPE>0</EPHEMERIS_TYPE><CLASSIFICATION_TYPE>U</CLASSIFICATION_TYPE><NORAD_CAT_ID>43573</NORAD_CAT_ID><ELEMENT_SET_NO>999</ELEMENT_SET_NO><REV_AT_EPOCH>36495</REV_AT_EPOCH><BSTAR>-.15474E-4</BSTAR><MEAN_MOTION_DOT>-.24E-6</MEAN_MOTION_DOT><MEAN_MOTION_DDOT>0</MEAN_MOTION_DDOT></tleParameters></data></segment></body></omm>
<omm id="CCSDS_OMM_VERS" version="2.0">
<header><CREATION_DATE/><ORIGINATOR/></header><body><segment><metadata><OBJECT_NAME>IRIDIUM 154</OBJECT_NAME><OBJECT_ID>2018-061F</OBJECT_ID><CENTER_NAME>EARTH</CENTER_NAME><REF_FRAME>TEME</REF_FRAME><TIME_SYSTEM>UTC</TIME_SYSTEM><MEAN_ELEMENT_THEORY>SGP4</MEAN_ELEMENT_THEORY></metadata><data><meanElements><EPOCH>2025-07-14T11:34:22.499904</EPOCH><MEAN_MOTION>14.34217408</MEAN_MOTION><ECCENTRICITY>.0002178</ECCENTRICITY><INCLINATION>86.3989</INCLINATION><RA_OF_ASC_NODE>197.8893</RA_OF_ASC_NODE><ARG_OF_PERICENTER>89.1869</ARG_OF_PERICENTER><MEAN_ANOMALY>270.9576</MEAN_ANOMALY></meanElements><tleParameters><EPHEMERIS_TYPE>0</EPHEMERIS_TYPE><CLASSIFICATION_TYPE>U</CLASSIFICATION_TYPE><NORAD_CAT_ID>43574</NORAD_CAT_ID><ELEMENT_SET_NO>999</ELEMENT_SET_NO><REV_AT_EPOCH>36500</REV_AT_EPOCH><BSTAR>-.66019E-5</BSTAR><MEAN_MOTION_DOT>.1E-7</MEAN_MOTION_DOT><MEAN_MOTION_DDOT>0</MEAN_MOTION_DDOT></tleParameters></data></segment></body></omm>
<omm id="CCSDS_OMM_VERS" version="2.0">
<header><CREATION_DATE/><ORIGINATOR/></header><body><segment><metadata><OBJECT_NAME>IRIDIUM 163</OBJECT_NAME><OBJECT_ID>2018-061G</OBJECT_ID><CENTER_NAME>EARTH</CENTER_NAME><REF_FRAME>TEME</REF_FRAME><TIME_SYSTEM>UTC</TIME_SYSTEM><MEAN_ELEMENT_THEORY>SGP4</MEAN_ELEMENT_THEORY></metadata><data><meanElements><EPOCH>2025-07-14T12:47:26.470464</EPOCH><MEAN_MOTION>14.34217571</MEAN_MOTION><ECCENTRICITY>.0002317</ECCENTRICITY><INCLINATION>86.3986</INCLINATION><RA_OF_ASC_NODE>197.7942</RA_OF_ASC_NODE><ARG_OF_PERICENTER>86.3373</ARG_OF_PERICENTER><MEAN_ANOMALY>273.8088</MEAN_ANOMALY></meanElements><tleParameters><EPHEMERIS_TYPE>0</EPHEMERIS_TYPE><CLASSIFICATION_TYPE>U</CLASSIFICATION_TYPE><NORAD_CAT_ID>43575</NORAD_CAT_ID><ELEMENT_SET_NO>999</ELEMENT_SET_NO><REV_AT_EPOCH>36498</REV_AT_EPOCH><BSTAR>-.12258E-4</BSTAR><MEAN_MOTION_DOT>-.15E-6</MEAN_MOTION_DOT><MEAN_MOTION_DDOT>0</MEAN_MOTION_DDOT></tleParameters></data></segment></body></omm>
<omm id="CCSDS_OMM_VERS" version="2.0">
<header><CREATION_DATE/><ORIGINATOR/></header><body><segment><metadata><OBJECT_NAME>IRIDIUM 156</OBJECT_NAME><OBJECT_ID>2018-061H</OBJECT_ID><CENTER_NAME>EARTH</CENTER_NAME><REF_FRAME>TEME</REF_FRAME><TIME_SYSTEM>UTC</TIME_SYSTEM><MEAN_ELEMENT_THEORY>SGP4</MEAN_ELEMENT_THEORY></metadata><data><meanElements><EPOCH>2025-07-14T12:10:54.435936</EPOCH><MEAN_MOTION>14.34217578</MEAN_MOTION><ECCENTRICITY>.0001902</ECCENTRICITY><INCLINATION>86.3987</INCLINATION><RA_OF_ASC_NODE>197.8118</RA_OF_ASC_NODE><ARG_OF_PERICENTER>82.9750</ARG_OF_PERICENTER><MEAN_ANOMALY>277.1662</MEAN_ANOMALY></meanElements><tleParameters><EPHEMERIS_TYPE>0</EPHEMERIS_TYPE><CLASSIFICATION_TYPE>U</CLASSIFICATION_TYPE><NORAD_CAT_ID>43576</NORAD_CAT_ID><ELEMENT_SET_NO>999</ELEMENT_SET_NO><REV_AT_EPOCH>36497</REV_AT_EPOCH><BSTAR>-.97503E-5</BSTAR><MEAN_MOTION_DOT>-.8E-7</MEAN_MOTION_DOT><MEAN_MOTION_DDOT>0</MEAN_MOTION_DDOT></tleParameters></data></segment></body></omm>
<omm id="CCSDS_OMM_VERS" version="2.0">
<header><CREATION_DATE/><ORIGINATOR/></header><body><segment><metadata><OBJECT_NAME>IRIDIUM 164</OBJECT_NAME><OBJECT_ID>2018-061J</OBJECT_ID><CENTER_NAME>EARTH</CENTER_NAME><REF_FRAME>TEME</REF_FRAME><TIME_SYSTEM>UTC</TIME_SYSTEM><MEAN_ELEMENT_THEORY>SGP4</MEAN_ELEMENT_THEORY></metadata><data><meanElements><EPOCH>2025-07-14T11:43:30.426240</EPOCH><MEAN_MOTION>14.34217919</MEAN_MOTION><ECCENTRICITY>.0002158</ECCENTRICITY><INCLINATION>86.3982</INCLINATION><RA_OF_ASC_NODE>197.8544</RA_OF_ASC_NODE><ARG_OF_PERICENTER>94.5838</ARG_OF_PERICENTER><MEAN_ANOMALY>265.5605</MEAN_ANOMALY></meanElements><tleParameters><EPHEMERIS_TYPE>0</EPHEMERIS_TYPE><CLASSIFICATION_TYPE>U</CLASSIFICATION_TYPE><NORAD_CAT_ID>43577</NORAD_CAT_ID><ELEMENT_SET_NO>999</ELEMENT_SET_NO><REV_AT_EPOCH>36501</REV_AT_EPOCH><BSTAR>.41307E-5</BSTAR><MEAN_MOTION_DOT>.31E-6</MEAN_MOTION_DOT><MEAN_MOTION_DDOT>0</MEAN_MOTION_DDOT></tleParameters></data></segment></body></omm>

</ndm>
