IRIDIUM 166             
1 43570U 18061B   25195.61539842  .00000045  00000+0  88285-5 0  9999
2 43570  86.3982 197.7812 0002025  90.0513 270.0915 14.34217896365013
IRIDIUM 158             
1 43571U 18061C   25195.51391674  .00000028  00000+0  28483-5 0  9993
2 43571  86.3982 197.8334 0002326  84.8145 275.3316 14.34217820364963
IRIDIUM 165             
1 43572U 18061D   25195.60906459  .00000104  00000+0  30029-4 0  9990
2 43572  86.3984 197.8335 0002204  91.9762 268.1686 14.34217851365006
IRIDIUM 155             
1 43573U 18061E   25195.50123216 -.00000024  00000+0 -15474-4 0  9992
2 43573  86.3985 197.7648 0002065  81.8404 278.3026 14.34217376364956
IRIDIUM 154             
1 43574U 18061F   25195.48220486  .00000001  00000+0 -66019-5 0  9993
2 43574  86.3989 197.8893 0002178  89.1869 270.9576 14.34217408365006
IRIDIUM 163             
1 43575U 18061G   25195.53294526 -.00000015  00000+0 -12258-4 0  9997
2 43575  86.3986 197.7942 0002317  86.3373 273.8088 14.34217571364989
IRIDIUM 156             
1 43576U 18061H   25195.50757449 -.00000008  00000+0 -97503-5 0  9992
2 43576  86.3987 197.8118 0001902  82.9750 277.1662 14.34217578364978
IRIDIUM 164             
1 43577U 18061J   25195.48854660  .00000031  00000+0  41307-5 0  9998
2 43577  86.3982 197.8544 0002158  94.5838 265.5605 14.34217919365010
